NORAD_CAT_ID,OBJECT_NAME,OBJECT_TYPE,EPOCH,MEAN_MOTION,ECCENTRICITY,INCLINATION,RA_OF_ASC_NODE,ARG_OF_PERICENTER,MEAN_ANOMALY,BSTAR,MEAN_MOTION_DOT,MEAN_MOTION_DDOT,TLE_LINE0,TLE_LINE1,TLE_LINE2,SEMIMAJOR_AXIS,PERIOD,APOGEE,PERIGEE,DECAYED
55649.0,STARLINK-5469,PAYLOAD,2023-11-02 02:09:14,14.98335265,0.0002839,70.0005,189.2025,266.2729,93.8105,8.2033e-05,8.86e-06,0.0,0 STARLINK-5469,1 55649U 23021X   23306.08975117  .00000886  00000-0  82033-4 0  9991,2 55649  70.0005 189.2025 0002839 266.2729  93.8105 14.98335265 39886,6950.177,96.107,574.015,570.068,0.0
55649.0,STARLINK-5469,PAYLOAD,2023-11-02 10:09:55,14.98331329,0.0002754,70.0008,188.3605,267.206,92.8784,2.9718e-05,2.62e-06,0.0,0 STARLINK-5469,1 55649U 23021X   23306.42355460  .00000262  00000-0  29718-4 0  9991,2 55649  70.0008 188.3605 0002754 267.2060  92.8784 14.98331329 40238,6950.189,96.107,573.968,570.14,0.0
55649.0,STARLINK-5469,PAYLOAD,2023-11-02 19:46:43,14.9833142,0.0002749,70.0005,187.3512,269.7048,90.3796,-1.1851e-05,-2.34e-06,0.0,0 STARLINK-5469,1 55649U 23021X   23306.82411541 -.00000234  00000-0 -11851-4 0  9998,2 55649  70.0005 187.3512 0002749 269.7048  90.3796 14.98331420 39997,6950.188,96.107,573.964,570.143,0.0
55649.0,STARLINK-5469,PAYLOAD,2023-11-02 22:58:59,14.98332391,0.0002777,70.0005,187.0148,270.0471,90.037,-4.907e-07,-9.9e-07,0.0,0 STARLINK-5469,1 55649U 23021X   23306.95763440 -.00000099  00000-0 -49070-6 0  9995,2 55649  70.0005 187.0148 0002777 270.0471  90.0370 14.98332391 40316,6950.185,96.107,573.981,570.12,0.0
55649.0,STARLINK-5469,PAYLOAD,2023-11-03 02:11:15,14.98332509,0.000278,70.0005,186.6783,268.2445,91.8396,1.7051e-05,1.11e-06,0.0,0 STARLINK-5469,1 55649U 23021X   23307.09115355  .00000111  00000-0  17051-4 0  9992,2 55649  70.0005 186.6783 0002780 268.2445  91.8396 14.98332509 40330,6950.185,96.107,573.982,570.118,0.0
55649.0,STARLINK-5469,PAYLOAD,2023-11-03 23:01:00,14.98327043,0.0002776,70.0007,184.4903,269.6516,90.4325,6.932e-05,7.34e-06,0.0,0 STARLINK-5469,1 55649U 23021X   23307.95903465  .00000734  00000-0  69320-4 0  9991,2 55649  70.0007 184.4903 0002776 269.6516  90.4325 14.98327043 40469,6950.202,96.107,573.996,570.138,0.0
55649.0,STARLINK-5469,PAYLOAD,2023-11-04 02:13:16,14.98326435,0.0002608,70.0007,184.1536,265.7338,94.3523,0.00010963,1.215e-05,0.0,0 STARLINK-5469,1 55649U 23021X   23308.09255421  .00001215  00000-0  10963-3 0  9992,2 55649  70.0007 184.1536 0002608 265.7338  94.3523 14.98326435 40187,6950.204,96.107,573.882,570.256,0.0
55649.0,STARLINK-5469,PAYLOAD,2023-11-04 08:37:48,14.98348282,0.0002893,70.0008,183.4803,271.152,88.9308,-0.00036669,-4.468e-05,0.0,0 STARLINK-5469,1 55649U 23021X   23308.35959106 -.00004468  00000-0 -36669-3 0  9998,2 55649  70.0008 183.4803 0002893 271.1520  88.9308 14.98348282 40226,6950.136,96.106,574.012,569.991,0.0
55649.0,STARLINK-5469,PAYLOAD,2023-11-04 19:50:45,14.98328926,0.0002786,70.0006,182.3022,273.3624,86.7216,1.6562e-06,-7.3e-07,0.0,0 STARLINK-5469,1 55649U 23021X   23308.82691510 -.00000073  00000-0  16562-5 0  9991,2 55649  70.0006 182.3022 0002786 273.3624  86.7216 14.98328926 40299,6950.196,96.107,573.998,570.125,0.0
55649.0,STARLINK-5469,PAYLOAD,2023-11-05 08:39:49,14.98347617,0.0002759,70.0008,180.956,272.6911,87.3932,-0.00012764,-1.616e-05,0.0,0 STARLINK-5469,1 55649U 23021X   23309.36098456 -.00001616  00000-0 -12764-3 0  9994,2 55649  70.0008 180.9560 0002759 272.6911  87.3932 14.98347617 40372,6950.138,96.106,573.921,570.086,0.0
55649.0,STARLINK-5469,PAYLOAD,2023-11-05 21:28:52,14.98348124,0.0002755,70.0,179.6098,265.4901,94.5944,0.00017499,1.997e-05,0.0,0 STARLINK-5469,1 55649U 23021X   23309.89505359  .00001997  00000-0  17499-3 0  9997,2 55649  70.0000 179.6098 0002755 265.4901  94.5944 14.98348124 40759,6950.137,96.106,573.917,570.087,0.0
55649.0,STARLINK-5469,PAYLOAD,2023-11-06 00:41:08,14.9835356,0.0002689,70.0,179.272,269.1506,90.9345,0.00021801,2.511e-05,0.0,0 STARLINK-5469,1 55649U 23021X   23310.02856750  .00002511  00000-0  21801-3 0  9993,2 55649  70.0000 179.2720 0002689 269.1506  90.9345 14.98353560 40479,6950.12,96.105,573.854,570.116,0.0
55649.0,STARLINK-5469,PAYLOAD,2023-11-06 19:54:46,14.98330292,0.0002984,70.0005,177.2526,269.6906,90.3911,-2.8591e-06,-1.27e-06,0.0,0 STARLINK-5469,1 55649U 23021X   23310.82970343 -.00000127  00000-0 -28591-5 0  9994,2 55649  70.0005 177.2526 0002984 269.6906  90.3911 14.98330292 40596,6950.192,96.107,574.131,569.983,0.0
55649.0,STARLINK-5469,PAYLOAD,2023-11-06 21:30:54,14.98333363,0.000293,70.0002,177.0839,263.0814,97.0012,-5.1216e-05,-7.04e-06,0.0,0 STARLINK-5469,1 55649U 23021X   23310.89646220 -.00000704  00000-0 -51216-4 0  9995,2 55649  70.0002 177.0839 0002930 263.0814  97.0012 14.98333363 40908,6950.182,96.107,574.084,570.011,0.0
55649.0,STARLINK-5469,PAYLOAD,2023-11-07 08:43:51,14.98321668,0.000309,70.0002,175.9058,270.7899,89.2906,-0.00020354,-2.52e-05,0.0,0 STARLINK-5469,1 55649U 23021X   23311.36379403 -.00002520  00000-0 -20354-3 0  9990,2 55649  70.0002 175.9058 0003090 270.7899  89.2906 14.98321668 40678,6950.219,96.108,574.231,569.936,0.0
55649.0,STARLINK-5469,PAYLOAD,2023-11-08 00:45:13,14.98310848,0.0002706,70.0,174.2223,267.2076,92.8773,-0.00011135,-1.421e-05,0.0,0 STARLINK-5469,1 55649U 23021X   23312.03140373 -.00001421  00000-0 -11135-3 0  9993,2 55649  70.0000 174.2223 0002706 267.2076  92.8773 14.98310848 40774,6950.252,96.108,573.998,570.236,0.0
55649.0,STARLINK-5469,PAYLOAD,2023-11-08 19:58:49,14.98318853,0.0002814,70.0005,172.2057,261.403,98.681,3.9606e-05,3.8e-06,0.0,0 STARLINK-5469,1 55649U 23021X   23312.83251769  .00000380  00000-0  39606-4 0  9998,2 55649  70.0005 172.2057 0002814 261.4030  98.6810 14.98318853 40891,6950.227,96.108,574.048,570.137,0.0
55649.0,STARLINK-5469,PAYLOAD,2023-11-08 21:34:57,14.98320903,0.000293,70.0004,172.0384,271.1111,88.9712,5.5323e-05,5.67e-06,0.0,0 STARLINK-5469,1 55649U 23021X   23312.89927714  .00000567  00000-0  55323-4 0  9995,2 55649  70.0004 172.0384 0002930 271.1111  88.9712 14.98320903 41206,6950.221,96.108,574.122,570.05,0.0
55649.0,STARLINK-5469,PAYLOAD,2023-11-09 00:47:13,14.98320905,0.0002994,69.9999,171.7008,272.4416,87.6401,4.1021e-05,3.96e-06,0.0,0 STARLINK-5469,1 55649U 23021X   23313.03279845  .00000396  00000-0  41021-4 0  9997,2 55649  69.9999 171.7008 0002994 272.4416  87.6401 14.98320905 41222,6950.221,96.108,574.167,570.005,0.0
55649.0,STARLINK-5469,PAYLOAD,2023-11-09 16:48:34,14.98322494,0.0003075,70.0006,170.0184,266.7936,93.2871,0.00027175,3.15e-05,0.0,0 STARLINK-5469,1 55649U 23021X   23313.70039392  .00003150  00000-0  27175-3 0  9996,2 55649  70.0006 170.0184 0003075 266.7936  93.2871 14.98322494 41022,6950.216,96.107,574.218,569.944,0.0
55649.0,STARLINK-5469,PAYLOAD,2023-11-09 20:00:49,14.98329943,0.0002927,69.9999,169.6816,254.0279,106.0557,0.00033233,3.874e-05,0.0,0 STARLINK-5469,1 55649U 23021X   23313.83390741  .00003874  00000-0  33233-3 0  9993,2 55649  69.9999 169.6816 0002927 254.0279 106.0557 14.98329943 41043,6950.193,96.107,574.092,570.024,0.0
55649.0,STARLINK-5469,PAYLOAD,2023-11-09 21:36:57,14.98329349,0.0003165,69.999,169.5113,271.1242,88.9555,0.00021384,2.459e-05,0.0,0 STARLINK-5469,1 55649U 23021X   23313.90067126  .00002459  00000-0  21384-3 0  9991,2 55649  69.9990 169.5113 0003165 271.1242  88.9555 14.98329349 41358,6950.195,96.107,574.26,569.86,0.0
55649.0,STARLINK-5469,PAYLOAD,2023-11-10 07:13:46,14.98337221,0.0003072,69.9994,168.5006,271.2942,88.7866,-2.0998e-06,-1.18e-06,0.0,0 STARLINK-5469,1 55649U 23021X   23314.30123148 -.00000118  00000-0 -20998-5 0  9997,2 55649  69.9994 168.5006 0003072 271.2942  88.7866 14.98337221 41415,6950.171,96.107,574.171,569.9,0.0
55649.0,STARLINK-5469,PAYLOAD,2023-11-10 20:02:51,14.98331032,0.0002716,70.0,167.1542,265.5843,94.5005,5.9916e-05,6.22e-06,0.0,0 STARLINK-5469,1 55649U 23021X   23314.83531441  .00000622  00000-0  59916-4 0  9993,2 55649  70.0000 167.1542 0002716 265.5843  94.5005 14.98331032 41195,6950.19,96.107,573.942,570.167,0.0
55649.0,STARLINK-5469,PAYLOAD,2023-11-11 00:51:15,14.98331329,0.0002954,69.9996,166.6491,273.3652,86.7169,4.5828e-05,4.54e-06,0.0,0 STARLINK-5469,1 55649U 23021X   23315.03559429  .00000454  00000-0  45828-4 0  9992,2 55649  69.9996 166.6491 0002954 273.3652  86.7169 14.98331329 41522,6950.189,96.107,574.107,570.001,0.0
55649.0,STARLINK-5469,PAYLOAD,2023-11-11 20:04:52,14.98282434,0.0002681,69.9996,164.6293,259.9664,100.1193,0.00079806,9.43e-05,0.0,0 STARLINK-5469,1 55649U 23021X   23315.83672111  .00009430  00000-0  79806-3 0  9999,2 55649  69.9996 164.6293 0002681 259.9664 100.1193 14.98282434 41340,6950.34,96.11,574.068,570.342,0.0
55649.0,STARLINK-5469,PAYLOAD,2023-11-11 21:41:01,14.9826061,0.0002318,69.9996,164.461,263.6949,96.3946,0.0011614,0.00013767,0.0,0 STARLINK-5469,1 55649U 23021X   23315.90348739  .00013767  00000-0  11614-2 0  9993,2 55649  69.9996 164.4610 0002318 263.6949  96.3946 14.98260610 41654,6950.407,96.111,573.884,570.661,0.0
55649.0,STARLINK-5469,PAYLOAD,2023-11-12 07:17:48,14.98333838,0.0002754,69.9996,163.4509,270.1748,89.9095,-4.7516e-05,-6.6e-06,0.0,0 STARLINK-5469,1 55649U 23021X   23316.30403159 -.00000660  00000-0 -47516-4 0  9998,2 55649  69.9996 163.4509 0002754 270.1748  89.9095 14.98333838 41414,6950.181,96.107,573.96,570.132,0.0
55649.0,STARLINK-5469,PAYLOAD,2023-11-12 13:42:20,14.98332347,0.0002846,69.9995,162.7773,269.4642,90.6191,1.5968e-05,9.8e-07,0.0,0 STARLINK-5469,1 55649U 23021X   23316.57106975  .00000098  00000-0  15968-4 0  9992,2 55649  69.9995 162.7773 0002846 269.4642  90.6191 14.98332347 41751,6950.186,96.107,574.029,570.073,0.0
55649.0,STARLINK-5469,PAYLOAD,2023-11-12 21:43:00,14.98333799,0.000286,69.9994,161.9354,269.2019,90.8812,1.819e-05,1.24e-06,0.0,0 STARLINK-5469,1 55649U 23021X   23316.90486792  .00000124  00000-0  18190-4 0  9997,2 55649  69.9994 161.9354 0002860 269.2019  90.8812 14.98333799 41808,6950.181,96.107,574.034,570.058,0.0
